{"type": "Feature", "properties": {"name": "Iceland"}, "geometry": {"type": "Polygon", "coordinates": [[[-15.543, 66.229], [-15.428, 66.225], [-15.241, 66.259], [-15.162, 66.282], [-14.97, 66.36], [-14.856, 66.381], [-14.681, 66.376], [-14.596, 66.382], [-14.594, 66.374], [-14.702, 66.342], [-14.788, 66.331], [-14.912, 66.284], [-15.03, 66.178], [-15.117, 66.126], [-15.116, 66.102], [-15.01, 66.061], [-14.894, 66.038], [-14.787, 66.059], [-14.74, 66.051], [-14.698, 66.02], [-14.674, 65.99], [-14.669, 65.96], [-14.688, 65.897], [-14.753, 65.834], [-14.839, 65.781], [-14.827, 65.764], [-14.758, 65.756], [-14.426, 65.79], [-14.392, 65.787], [-14.373, 65.77], [-14.369, 65.739], [-14.351, 65.71], [-14.318, 65.684], [-14.328, 65.658], [-14.473, 65.575], [-14.302, 65.628], [-14.167, 65.642], [-13.935, 65.616], [-13.841, 65.586], [-13.785, 65.533], [-13.705, 65.551], [-13.67, 65.55], [-13.618, 65.519], [-13.616, 65.487], [-13.654, 65.441], [-13.668, 65.399], [-13.708, 65.382], [-13.783, 65.369], [-13.805, 65.355], [-13.772, 65.323], [-13.723, 65.291], [-13.653, 65.29], [-13.641, 65.275], [-13.64, 65.257], [-13.649, 65.237], [-13.672, 65.223], [-13.707, 65.215], [-13.755, 65.193], [-13.581, 65.143], [-13.559, 65.125], [-13.556, 65.098], [-13.57, 65.068], [-13.599, 65.036], [-13.652, 65.017], [-13.777, 65.014], [-13.854, 64.993], [-13.828, 64.958], [-13.83, 64.914], [-13.853, 64.862], [-13.952, 64.784], [-14.044, 64.742], [-14.135, 64.715], [-14.297, 64.724], [-14.385, 64.745], [-14.375, 64.677], [-14.465, 64.636], [-14.448, 64.601], [-14.417, 64.583], [-14.433, 64.538], [-14.475, 64.494], [-14.547, 64.446], [-14.628, 64.416], [-14.79, 64.38], [-14.927, 64.32], [-15.022, 64.296], [-15.256, 64.297], [-15.495, 64.258], [-15.833, 64.177], [-16.06, 64.111], [-16.236, 64.037], [-16.468, 63.916], [-16.64, 63.865], [-16.74, 63.852], [-16.933, 63.841], [-17.095, 63.808], [-17.633, 63.747], [-17.816, 63.713], [-17.839, 63.682], [-17.915, 63.636], [-17.92, 63.62], [-17.886, 63.607], [-17.88, 63.59], [-17.947, 63.536], [-18.08, 63.496], [-18.143, 63.497], [-18.219, 63.531], [-18.252, 63.53], [-18.265, 63.525], [-18.266, 63.514], [-18.222, 63.473], [-18.303, 63.454], [-18.654, 63.407], [-19.25, 63.442], [-19.487, 63.479], [-19.778, 63.537], [-19.952, 63.552], [-20.198, 63.556], [-20.4, 63.637], [-20.494, 63.687], [-20.502, 63.708], [-20.491, 63.732], [-20.47, 63.748], [-20.438, 63.757], [-20.372, 63.758], [-20.363, 63.765], [-20.414, 63.805], [-20.463, 63.792], [-20.593, 63.735], [-20.651, 63.737], [-20.727, 63.766], [-20.73, 63.793], [-20.879, 63.804], [-21.008, 63.838], [-21.137, 63.888], [-21.156, 63.907], [-21.094, 63.934], [-21.106, 63.94], [-21.152, 63.945], [-21.246, 63.935], [-21.388, 63.873], [-21.449, 63.858], [-22.373, 63.844], [-22.607, 63.837], [-22.652, 63.828], [-22.693, 63.869], [-22.729, 63.959], [-22.743, 64.019], [-22.734, 64.048], [-22.701, 64.083], [-22.651, 64.077], [-22.603, 64.05], [-22.56, 64.01], [-22.51, 63.991], [-22.188, 64.039], [-22.057, 64.071], [-22.001, 64.102], [-21.935, 64.154], [-21.866, 64.18], [-21.833, 64.205], [-21.768, 64.285], [-21.723, 64.322], [-21.669, 64.349], [-21.606, 64.367], [-21.463, 64.379], [-21.557, 64.398], [-21.647, 64.398], [-21.951, 64.314], [-22.053, 64.314], [-22.049, 64.327], [-22.006, 64.351], [-21.901, 64.392], [-21.973, 64.395], [-22.001, 64.413], [-22.004, 64.452], [-21.95, 64.515], [-21.702, 64.598], [-21.617, 64.61], [-21.591, 64.626], [-21.623, 64.64], [-21.675, 64.648], [-21.924, 64.563], [-22.106, 64.533], [-22.16, 64.539], [-22.254, 64.572], [-22.284, 64.587], [-22.325, 64.624], [-22.32, 64.647], [-22.234, 64.714], [-22.248, 64.727], [-22.307, 64.733], [-22.467, 64.795], [-22.72, 64.789], [-23.347, 64.824], [-23.476, 64.809], [-23.69, 64.757], [-23.819, 64.739], [-23.879, 64.751], [-23.933, 64.779], [-23.982, 64.816], [-24.026, 64.863], [-24.007, 64.896], [-23.924, 64.915], [-23.864, 64.924], [-23.693, 64.913], [-23.485, 64.946], [-23.353, 64.953], [-23.315, 64.958], [-23.237, 64.993], [-23.198, 65.002], [-23.138, 64.99], [-23.109, 64.966], [-22.9, 65.003], [-22.828, 65.022], [-22.82, 65.033], [-22.788, 65.046], [-22.684, 65.026], [-22.6, 65.026], [-22.494, 65.04], [-22.308, 65.046], [-21.892, 65.049], [-21.83, 65.079], [-21.8, 65.106], [-21.764, 65.174], [-21.78, 65.188], [-22.04, 65.125], [-22.099, 65.126], [-22.4, 65.159], [-22.509, 65.197], [-22.473, 65.227], [-22.314, 65.292], [-22.149, 65.344], [-21.907, 65.4], [-21.85, 65.422], [-21.844, 65.447], [-22.006, 65.493], [-22.311, 65.481], [-22.39, 65.535], [-22.644, 65.568], [-22.813, 65.547], [-22.902, 65.58], [-23.122, 65.535], [-23.605, 65.469], [-23.796, 65.423], [-23.9, 65.408], [-24.019, 65.445], [-24.224, 65.487], [-24.455, 65.5], [-24.476, 65.525], [-24.341, 65.601], [-24.249, 65.615], [-24.156, 65.608], [-23.979, 65.555], [-23.857, 65.538], [-24.01, 65.616], [-24.006, 65.646], [-24.018, 65.691], [-24.065, 65.71], [-24.112, 65.76], [-24.093, 65.776], [-24.032, 65.782], [-23.909, 65.766], [-23.616, 65.68], [-23.472, 65.695], [-23.393, 65.727], [-23.285, 65.75], [-23.316, 65.762], [-23.569, 65.764], [-23.705, 65.781], [-23.773, 65.806], [-23.833, 65.849], [-23.812, 65.869], [-23.741, 65.885], [-23.525, 65.88], [-23.667, 65.954], [-23.767, 65.997], [-23.777, 66.018], [-23.771, 66.043], [-23.757, 66.061], [-23.737, 66.069], [-23.489, 66.026], [-23.434, 66.024], [-23.485, 66.052], [-23.594, 66.093], [-23.599, 66.109], [-23.553, 66.122], [-23.53, 66.145], [-23.528, 66.164], [-23.453, 66.181], [-23.377, 66.182], [-23.3, 66.167], [-23.063, 66.086], [-23.029, 66.064], [-23.017, 66.034], [-23.029, 65.997], [-23.019, 65.982], [-22.926, 65.995], [-22.852, 65.979], [-22.815, 65.983], [-22.723, 66.039], [-22.66, 66.026], [-22.622, 66.0], [-22.61, 65.976], [-22.604, 65.944], [-22.62, 65.877], [-22.616, 65.867], [-22.552, 65.905], [-22.442, 65.908], [-22.428, 65.927], [-22.424, 65.998], [-22.433, 66.058], [-22.445, 66.07], [-22.806, 66.153], [-22.869, 66.172], [-22.948, 66.213], [-22.932, 66.233], [-22.862, 66.251], [-22.756, 66.259], [-22.509, 66.258], [-22.484, 66.266], [-22.532, 66.288], [-22.646, 66.302], [-22.673, 66.314], [-22.686, 66.338], [-22.821, 66.325], [-22.972, 66.324], [-23.117, 66.339], [-23.12, 66.357], [-23.063, 66.384], [-22.944, 66.429], [-22.889, 66.441], [-22.724, 66.433], [-22.559, 66.445], [-22.426, 66.43], [-22.32, 66.385], [-22.17, 66.307], [-21.967, 66.257], [-21.948, 66.241], [-21.84, 66.2], [-21.625, 66.09], [-21.407, 66.026], [-21.397, 66.009], [-21.433, 65.99], [-21.517, 65.968], [-21.497, 65.955], [-21.388, 65.939], [-21.309, 65.895], [-21.303, 65.876], [-21.375, 65.742], [-21.413, 65.713], [-21.457, 65.698], [-21.658, 65.724], [-21.61, 65.681], [-21.466, 65.635], [-21.434, 65.61], [-21.455, 65.585], [-21.439, 65.579], [-21.387, 65.592], [-21.365, 65.578], [-21.374, 65.536], [-21.396, 65.502], [-21.432, 65.474], [-21.422, 65.462], [-21.365, 65.466], [-21.313, 65.459], [-21.23, 65.421], [-21.163, 65.304], [-21.13, 65.267], [-21.106, 65.3], [-21.076, 65.385], [-21.047, 65.428], [-21.021, 65.43], [-20.998, 65.445], [-20.979, 65.471], [-20.94, 65.565], [-20.804, 65.636], [-20.74, 65.658], [-20.679, 65.663], [-20.649, 65.654], [-20.548, 65.579], [-20.487, 65.567], [-20.455, 65.571], [-20.412, 65.622], [-20.357, 65.719], [-20.344, 65.828], [-20.374, 65.948], [-20.357, 66.033], [-20.292, 66.084], [-20.208, 66.1], [-20.103, 66.08], [-20.026, 66.049], [-19.875, 65.93], [-19.753, 65.868], [-19.648, 65.801], [-19.594, 65.779], [-19.49, 65.768], [-19.462, 65.772], [-19.443, 65.788], [-19.434, 65.814], [-19.456, 65.985], [-19.427, 66.038], [-19.383, 66.076], [-19.195, 66.098], [-19.093, 66.122], [-18.994, 66.16], [-18.911, 66.181], [-18.846, 66.184], [-18.778, 66.169], [-18.706, 66.136], [-18.595, 66.071], [-18.455, 65.965], [-18.277, 65.885], [-18.184, 65.758], [-18.164, 65.737], [-18.142, 65.734], [-18.118, 65.751], [-18.103, 65.774], [-18.099, 65.83], [-18.149, 65.905], [-18.315, 66.093], [-18.318, 66.129], [-18.297, 66.157], [-18.18, 66.161], [-17.907, 66.143], [-17.82, 66.114], [-17.634, 65.999], [-17.582, 65.971], [-17.55, 65.964], [-17.539, 65.978], [-17.467, 66.0], [-17.417, 66.026], [-17.334, 66.089], [-17.153, 66.203], [-17.115, 66.206], [-17.062, 66.197], [-16.97, 66.167], [-16.925, 66.143], [-16.838, 66.125], [-16.748, 66.132], [-16.625, 66.172], [-16.485, 66.196], [-16.437, 66.253], [-16.428, 66.278], [-16.541, 66.447], [-16.493, 66.481], [-16.249, 66.523], [-16.036, 66.526], [-15.985, 66.515], [-15.851, 66.433], [-15.76, 66.392], [-15.714, 66.359], [-15.703, 66.286], [-15.647, 66.259], [-15.543, 66.229]]]}}